{
  "type": "FeatureCollection",
  "features": [
    {
      "type": "Feature",
      "properties": {
        "norad_id": 66568,
        "name": "STARLINK-35803",
        "group": "last-30-days",
        "lat": -42.893823120820066,
        "lon": 4.736289199636744,
        "alt_km": 417.6796740048403,
        "timestamp": "2025-12-17T23:38:05.623962+00:00",
        "meta_object_name": "STARLINK-35803",
        "meta_object_id": "2025-268M",
        "meta_epoch": "2025-12-17T11:38:27.024000",
        "meta_mean_motion": 15.50575134,
        "meta_eccentricity": 0.00010381,
        "meta_inclination": 42.9937,
        "meta_ra_of_asc_node": 93.3903,
        "meta_arg_of_pericenter": 232.7419,
        "meta_mean_anomaly": 127.3346,
        "meta_ephemeris_type": 0,
        "meta_classification_type": "U",
        "meta_norad_cat_id": 66568,
        "meta_element_set_no": 999,
        "meta_rev_at_epoch": 536,
        "meta_bstar": 0.00097280858,
        "meta_mean_motion_dot": 0.00057138,
        "meta_mean_motion_ddot": 0,
        "tle_line1": "1 66568U 25268M   25351.48503500  .00057138  00000+0  97281-3 0  9998",
        "tle_line2": "2 66568  42.9937  93.3903 0001038 232.7419 127.3346 15.50575134  5360"
      },
      "geometry": {
        "type": "Point",
        "coordinates": [
          4.736289199636744,
          -42.893823120820066
        ]
      }
    },
    {
      "type": "Feature",
      "properties": {
        "norad_id": 66569,
        "name": "STARLINK-35835",
        "group": "last-30-days",
        "lat": -42.631337186463206,
        "lon": 9.390809300266463,
        "alt_km": 416.37311630657587,
        "timestamp": "2025-12-17T23:38:05.623973+00:00",
        "meta_object_name": "STARLINK-35835",
        "meta_object_id": "2025-268N",
        "meta_epoch": "2025-12-15T17:53:30.134688",
        "meta_mean_motion": 15.50581218,
        "meta_eccentricity": 0.00013774,
        "meta_inclination": 43.0003,
        "meta_ra_of_asc_node": 103.5637,
        "meta_arg_of_pericenter": 270.128,
        "meta_mean_anomaly": 89.9422,
        "meta_ephemeris_type": 0,
        "meta_classification_type": "U",
        "meta_norad_cat_id": 66569,
        "meta_element_set_no": 999,
        "meta_rev_at_epoch": 509,
        "meta_bstar": 0.0014471406,
        "meta_mean_motion_dot": 0.00085494,
        "meta_mean_motion_ddot": 0,
        "tle_line1": "1 66569U 25268N   25349.74548767  .00085494  00000+0  14471-2 0  9994",
        "tle_line2": "2 66569  43.0003 103.5637 0001377 270.1280  89.9422 15.50581218  5091"
      },
      "geometry": {
        "type": "Point",
        "coordinates": [
          9.390809300266463,
          -42.631337186463206
        ]
      }
    },
    {
      "type": "Feature",
      "properties": {
        "norad_id": 66570,
        "name": "STARLINK-35834",
        "group": "last-30-days",
        "lat": -42.59432622622648,
        "lon": 9.85919904611746,
        "alt_km": 417.21871260629086,
        "timestamp": "2025-12-17T23:38:05.623983+00:00",
        "meta_object_name": "STARLINK-35834",
        "meta_object_id": "2025-268P",
        "meta_epoch": "2025-12-17T00:00:02.999808",
        "meta_mean_motion": 15.50542009,
        "meta_eccentricity": 0.0001628,
        "meta_inclination": 43.0008,
        "meta_ra_of_asc_node": 96.2217,
        "meta_arg_of_pericenter": 261.3551,
        "meta_mean_anomaly": 272.012,
        "meta_ephemeris_type": 0,
        "meta_classification_type": "U",
        "meta_norad_cat_id": 66570,
        "meta_element_set_no": 999,
        "meta_rev_at_epoch": 535,
        "meta_bstar": 0.00057210059,
        "meta_mean_motion_dot": 0.00033319,
        "meta_mean_motion_ddot": 0,
        "tle_line1": "1 66570U 25268P   25351.00003472  .00033319  00000+0  57210-3 0  9995",
        "tle_line2": "2 66570  43.0008  96.2217 0001628 261.3551 272.0120 15.50542009  5356"
      },
      "geometry": {
        "type": "Point",
        "coordinates": [
          9.85919904611746,
          -42.59432622622648
        ]
      }
    },
    {
      "type": "Feature",
      "properties": {
        "norad_id": 66571,
        "name": "STARLINK-35836",
        "group": "last-30-days",
        "lat": -42.149186558718306,
        "lon": 14.16400922696922,
        "alt_km": 416.7784250019895,
        "timestamp": "2025-12-17T23:38:05.623993+00:00",
        "meta_object_name": "STARLINK-35836",
        "meta_object_id": "2025-268Q",
        "meta_epoch": "2025-12-15T16:19:45.764256",
        "meta_mean_motion": 15.50585283,
        "meta_eccentricity": 0.00014873,
        "meta_inclination": 42.9954,
        "meta_ra_of_asc_node": 103.9347,
        "meta_arg_of_pericenter": 312.1791,
        "meta_mean_anomaly": 47.8943,
        "meta_ephemeris_type": 0,
        "meta_classification_type": "U",
        "meta_norad_cat_id": 66571,
        "meta_element_set_no": 999,
        "meta_rev_at_epoch": 508,
        "meta_bstar": 0.0011259195,
        "meta_mean_motion_dot": 0.00066287,
        "meta_mean_motion_ddot": 0,
        "tle_line1": "1 66571U 25268Q   25349.68039079  .00066287  00000+0  11259-2 0  9991",
        "tle_line2": "2 66571  42.9954 103.9347 0001487 312.1791  47.8943 15.50585283  5081"
      },
      "geometry": {
        "type": "Point",
        "coordinates": [
          14.16400922696922,
          -42.149186558718306
        ]
      }
    },
    {
      "type": "Feature",
      "properties": {
        "norad_id": 66572,
        "name": "STARLINK-35870",
        "group": "last-30-days",
        "lat": -41.644038654003516,
        "lon": 17.839839907631205,
        "alt_km": 422.8495428285105,
        "timestamp": "2025-12-17T23:38:05.624004+00:00",
        "meta_object_name": "STARLINK-35870",
        "meta_object_id": "2025-268R",
        "meta_epoch": "2025-12-17T10:03:12.908160",
        "meta_mean_motion": 15.50586275,
        "meta_eccentricity": 0.00091968,
        "meta_inclination": 42.9993,
        "meta_ra_of_asc_node": 93.7574,
        "meta_arg_of_pericenter": 139.6977,
        "meta_mean_anomaly": 220.4567,
        "meta_ephemeris_type": 0,
        "meta_classification_type": "U",
        "meta_norad_cat_id": 66572,
        "meta_element_set_no": 999,
        "meta_rev_at_epoch": 535,
        "meta_bstar": 0.0010430896,
        "meta_mean_motion_dot": 0.00061442,
        "meta_mean_motion_ddot": 0,
        "tle_line1": "1 66572U 25268R   25351.41889940  .00061442  00000+0  10431-2 0  9995",
        "tle_line2": "2 66572  42.9993  93.7574 0009196 139.6977 220.4567 15.50586275  5359"
      },
      "geometry": {
        "type": "Point",
        "coordinates": [
          17.839839907631205,
          -41.644038654003516
        ]
      }
    },
    {
      "type": "Feature",
      "properties": {
        "norad_id": 66573,
        "name": "STARLINK-35650",
        "group": "last-30-days",
        "lat": -40.23314599694918,
        "lon": 25.192290301276238,
        "alt_km": 413.7833660932747,
        "timestamp": "2025-12-17T23:38:05.624016+00:00",
        "meta_object_name": "STARLINK-35650",
        "meta_object_id": "2025-268S",
        "meta_epoch": "2025-12-16T15:29:39.161760",
        "meta_mean_motion": 15.51253867,
        "meta_eccentricity": 0.00025406,
        "meta_inclination": 42.9964,
        "meta_ra_of_asc_node": 98.2753,
        "meta_arg_of_pericenter": 312.0819,
        "meta_mean_anomaly": 47.9825,
        "meta_ephemeris_type": 0,
        "meta_classification_type": "U",
        "meta_norad_cat_id": 66573,
        "meta_element_set_no": 999,
        "meta_rev_at_epoch": 523,
        "meta_bstar": 0.002315295,
        "meta_mean_motion_dot": 0.00141337,
        "meta_mean_motion_ddot": 0,
        "tle_line1": "1 66573U 25268S   25350.64559215  .00141337  00000+0  23153-2 0  9996",
        "tle_line2": "2 66573  42.9964  98.2753 0002540 312.0819  47.9825 15.51253867  5230"
      },
      "geometry": {
        "type": "Point",
        "coordinates": [
          25.192290301276238,
          -40.23314599694918
        ]
      }
    },
    {
      "type": "Feature",
      "properties": {
        "norad_id": 66574,
        "name": "STARLINK-35812",
        "group": "last-30-days",
        "lat": -41.248021063796635,
        "lon": 20.213765626534705,
        "alt_km": 416.8611907623663,
        "timestamp": "2025-12-17T23:38:05.624028+00:00",
        "meta_object_name": "STARLINK-35812",
        "meta_object_id": "2025-268T",
        "meta_epoch": "2025-12-17T08:29:58.327584",
        "meta_mean_motion": 15.50618415,
        "meta_eccentricity": 0.00017602,
        "meta_inclination": 43.0002,
        "meta_ra_of_asc_node": 94.1313,
        "meta_arg_of_pericenter": 260.9545,
        "meta_mean_anomaly": 99.1116,
        "meta_ephemeris_type": 0,
        "meta_classification_type": "U",
        "meta_norad_cat_id": 66574,
        "meta_element_set_no": 999,
        "meta_rev_at_epoch": 534,
        "meta_bstar": 0.0010775613,
        "meta_mean_motion_dot": 0.00063478,
        "meta_mean_motion_ddot": 0,
        "tle_line1": "1 66574U 25268T   25351.35414731  .00063478  00000+0  10776-2 0  9995",
        "tle_line2": "2 66574  43.0002  94.1313 0001760 260.9545  99.1116 15.50618415  5340"
      },
      "geometry": {
        "type": "Point",
        "coordinates": [
          20.213765626534705,
          -41.248021063796635
        ]
      }
    }
  ]
}